{"type": "FeatureCollection", "features": [ {"type": "Feature", "properties": {"norad_id": 41830, "name": "FENGYUN 1C DEB", "group": "fengyun-1c-debris", "lat": 33.75038951222334, "lon": 66.79651450375623, "alt_km": 832.5536628970622, "timestamp": "2025-12-26T17:24:55.009765+00:00", "meta": {"OBJECT_NAME": "FENGYUN 1C DEB", "OBJECT_ID": "1999-025EYH", "EPOCH": "2025-12-26T03:47:13.789536", "MEAN_MOTION": 14.26556074, "ECCENTRICITY": 0.00548122, "INCLINATION": 98.7549, "RA_OF_ASC_NODE": 72.1389, "ARG_OF_PERICENTER": 179.2327, "MEAN_ANOMALY": 180.8947, "EPHEMERIS_TYPE": 0, "CLASSIFICATION_TYPE": "U", "NORAD_CAT_ID": 41830, "ELEMENT_SET_NO": 999, "REV_AT_EPOCH": 47465, "BSTAR": 0.0016914631, "MEAN_MOTION_DOT": 4.103e-05, "MEAN_MOTION_DDOT": 0}, "tle": {"line1": "1 41830U 99025EYH 25360.15779849  .00004103  00000+0  16915-2 0  9998", "line2": "2 41830  98.7549  72.1389 0054812 179.2327 180.8947 14.26556074474654"}}, "geometry": {"type": "Point", "coordinates": [66.79651450375623, 33.75038951222334]}}, {"type": "Feature", "properties": {"norad_id": 41831, "name": "FENGYUN 1C DEB", "group": "fengyun-1c-debris", "lat": 53.81706069121006, "lon": -100.36384254302888, "alt_km": 781.7383464203176, "timestamp": "2025-12-26T17:24:55.009775+00:00", "meta": {"OBJECT_NAME": "FENGYUN 1C DEB", "OBJECT_ID": "1999-025EYJ", "EPOCH": "2025-12-26T03:20:32.800992", "MEAN_MOTION": 14.24657287, "ECCENTRICITY": 0.00567905, "INCLINATION": 98.733, "RA_OF_ASC_NODE": 66.9221, "ARG_OF_PERICENTER": 183.2398, "MEAN_ANOMALY": 176.8421, "EPHEMERIS_TYPE": 0, "CLASSIFICATION_TYPE": "U", "NORAD_CAT_ID": 41831, "ELEMENT_SET_NO": 999, "REV_AT_EPOCH": 47450, "BSTAR": 0.0014593929, "MEAN_MOTION_DOT": 3.408e-05, "MEAN_MOTION_DDOT": 0}, "tle": {"line1": "1 41831U 99025EYJ 25360.13926853  .00003408  00000+0  14594-2 0  9994", "line2": "2 41831  98.7330  66.9221 0056790 183.2398 176.8421 14.24657287474501"}}, "geometry": {"type": "Point", "coordinates": [-100.36384254302888, 53.81706069121006]}}, {"type": "Feature", "properties": {"norad_id": 41832, "name": "FENGYUN 1C DEB", "group": "fengyun-1c-debris", "lat": 16.100555785126573, "lon": -112.8020063604812, "alt_km": 774.0677396255796, "timestamp": "2025-12-26T17:24:55.009784+00:00", "meta": {"OBJECT_NAME": "FENGYUN 1C DEB", "OBJECT_ID": "1999-025EYK", "EPOCH": "2025-12-26T03:09:37.749024", "MEAN_MOTION": 14.24329137, "ECCENTRICITY": 0.00560901, "INCLINATION": 98.7282, "RA_OF_ASC_NODE": 64.0666, "ARG_OF_PERICENTER": 187.8727, "MEAN_ANOMALY": 172.1577, "EPHEMERIS_TYPE": 0, "CLASSIFICATION_TYPE": "U", "NORAD_CAT_ID": 41832, "ELEMENT_SET_NO": 999, "REV_AT_EPOCH": 47541, "BSTAR": 0.0015340008, "MEAN_MOTION_DOT": 3.56e-05, "MEAN_MOTION_DDOT": 0}, "tle": {"line1": "1 41832U 99025EYK 25360.13168691  .00003560  00000+0  15340-2 0  9992", "line2": "2 41832  98.7282  64.0666 0056090 187.8727 172.1577 14.24329137475411"}}, "geometry": {"type": "Point", "coordinates": [-112.8020063604812, 16.100555785126573]}}, {"type": "Feature", "properties": {"norad_id": 41833, "name": "FENGYUN 1C DEB", "group": "fengyun-1c-debris", "lat": 81.23321319066937, "lon": -23.06527093744131, "alt_km": 799.8928562614919, "timestamp": "2025-12-26T17:24:55.009794+00:00", "meta": {"OBJECT_NAME": "FENGYUN 1C DEB", "OBJECT_ID": "1999-025EYL", "EPOCH": "2025-12-26T03:30:59.762592", "MEAN_MOTION": 14.25916443, "ECCENTRICITY": 0.00550089, "INCLINATION": 98.7467, "RA_OF_ASC_NODE": 69.6865, "ARG_OF_PERICENTER": 185.3415, "MEAN_ANOMALY": 174.7185, "EPHEMERIS_TYPE": 0, "CLASSIFICATION_TYPE": "U", "NORAD_CAT_ID": 41833, "ELEMENT_SET_NO": 999, "REV_AT_EPOCH": 47555, "BSTAR": 0.0016909984, "MEAN_MOTION_DOT": 4.05e-05, "MEAN_MOTION_DDOT": 0}, "tle": {"line1": "1 41833U 99025EYL 25360.14652503  .00004050  00000+0  16910-2 0  9993", "line2": "2 41833  98.7467  69.6865 0055008 185.3415 174.7185 14.25916443475555"}}, "geometry": {"type": "Point", "coordinates": [-23.06527093744131, 81.23321319066937]}}, {"type": "Feature", "properties": {"norad_id": 43213, "name": "FENGYUN 1C DEB", "group": "fengyun-1c-debris", "lat": -15.985903937459497, "lon": -117.49033729400779, "alt_km": 777.2227977076464, "timestamp": "2025-12-26T17:24:55.009804+00:00", "meta": {"OBJECT_NAME": "FENGYUN 1C DEB", "OBJECT_ID": "1999-025EYM", "EPOCH": "2025-12-25T15:12:03.929184", "MEAN_MOTION": 14.23940421, "ECCENTRICITY": 0.0055617, "INCLINATION": 98.7316, "RA_OF_ASC_NODE": 63.9485, "ARG_OF_PERICENTER": 190.6764, "MEAN_ANOMALY": 169.3238, "EPHEMERIS_TYPE": 0, "CLASSIFICATION_TYPE": "U", "NORAD_CAT_ID": 43213, "ELEMENT_SET_NO": 999, "REV_AT_EPOCH": 40556, "BSTAR": 0.0015635, "MEAN_MOTION_DOT": 3.6e-05, "MEAN_MOTION_DDOT": 0}, "tle": {"line1": "1 43213U 99025EYM 25359.63337881  .00003600  00000+0  15635-2 0  9991", "line2": "2 43213  98.7316  63.9485 0055617 190.6764 169.3238 14.23940421405563"}}, "geometry": {"type": "Point", "coordinates": [-117.49033729400779, -15.985903937459497]}}, {"type": "Feature", "properties": {"norad_id": 43214, "name": "FENGYUN 1C DEB", "group": "fengyun-1c-debris", "lat": 44.43149439506284, "lon": -105.97989327803207, "alt_km": 782.5155474829971, "timestamp": "2025-12-26T17:24:55.009814+00:00", "meta": {"OBJECT_NAME": "FENGYUN 1C DEB", "OBJECT_ID": "1999-025EYN", "EPOCH": "2025-12-26T03:17:34.287360", "MEAN_MOTION": 14.24220503, "ECCENTRICITY": 0.0056057, "INCLINATION": 98.7344, "RA_OF_ASC_NODE": 64.7671, "ARG_OF_PERICENTER": 188.8691, "MEAN_ANOMALY": 171.1502, "EPHEMERIS_TYPE": 0, "CLASSIFICATION_TYPE": "U", "NORAD_CAT_ID": 43214, "ELEMENT_SET_NO": 999, "REV_AT_EPOCH": 40594, "BSTAR": 0.0014660028, "MEAN_MOTION_DOT": 3.393e-05, "MEAN_MOTION_DDOT": 0}, "tle": {"line1": "1 43214U 99025EYN 25360.13720240  .00003393  00000+0  14660-2 0  9990", "line2": "2 43214  98.7344  64.7671 0056057 188.8691 171.1502 14.24220503405948"}}, "geometry": {"type": "Point", "coordinates": [-105.97989327803207, 44.43149439506284]}}, {"type": "Feature", "properties": {"norad_id": 43358, "name": "FENGYUN 1C DEB", "group": "fengyun-1c-debris", "lat": -19.26707235463029, "lon": 121.86411997050408, "alt_km": 1385.6244665437025, "timestamp": "2025-12-26T17:24:55.009823+00:00", "meta": {"OBJECT_NAME": "FENGYUN 1C DEB", "OBJECT_ID": "1999-025EYP", "EPOCH": "2025-12-25T21:48:47.157696", "MEAN_MOTION": 13.40410393, "ECCENTRICITY": 0.0367445, "INCLINATION": 98.6876, "RA_OF_ASC_NODE": 118.0979, "ARG_OF_PERICENTER": 169.6436, "MEAN_ANOMALY": 191.2536, "EPHEMERIS_TYPE": 0, "CLASSIFICATION_TYPE": "U", "NORAD_CAT_ID": 43358, "ELEMENT_SET_NO": 999, "REV_AT_EPOCH": 53907, "BSTAR": 0.0018351, "MEAN_MOTION_DOT": 1.459e-05, "MEAN_MOTION_DDOT": 0}, "tle": {"line1": "1 43358U 99025EYP 25359.90887914  .00001459  00000+0  18351-2 0  9996", "line2": "2 43358  98.6876 118.0979 0367445 169.6436 191.2536 13.40410393539077"}}, "geometry": {"type": "Point", "coordinates": [121.86411997050408, -19.26707235463029]}}, {"type": "Feature", "properties": {"norad_id": 43359, "name": "FENGYUN 1C DEB", "group": "fengyun-1c-debris", "lat": -11.354471648490764, "lon": 82.94221589998824, "alt_km": 767.4263455162682, "timestamp": "2025-12-26T17:24:55.009833+00:00", "meta": {"OBJECT_NAME": "FENGYUN 1C DEB", "OBJECT_ID": "1999-025EYQ", "EPOCH": "2025-12-25T04:21:01.480896", "MEAN_MOTION": 14.23267674, "ECCENTRICITY": 0.00734706, "INCLINATION": 99.052, "RA_OF_ASC_NODE": 79.5201, "ARG_OF_PERICENTER": 338.2051, "MEAN_ANOMALY": 21.6005, "EPHEMERIS_TYPE": 0, "CLASSIFICATION_TYPE": "U", "NORAD_CAT_ID": 43359, "ELEMENT_SET_NO": 999, "REV_AT_EPOCH": 47926, "BSTAR": 0.0020431863, "MEAN_MOTION_DOT": 4.711e-05, "MEAN_MOTION_DDOT": 0}, "tle": {"line1": "1 43359U 99025EYQ 25359.18126714  .00004711  00000+0  20432-2 0  9998", "line2": "2 43359  99.0520  79.5201 0073470 338.2051  21.6005 14.23267674479262"}}, "geometry": {"type": "Point", "coordinates": [82.94221589998824, -11.354471648490764]}}, {"type": "Feature", "properties": {"norad_id": 45526, "name": "FENGYUN 1C DEB", "group": "fengyun-1c-debris", "lat": -58.546771855848235, "lon": -121.72426782069823, "alt_km": 790.3237996532989, "timestamp": "2025-12-26T17:24:55.009843+00:00", "meta": {"OBJECT_NAME": "FENGYUN 1C DEB", "OBJECT_ID": "1999-025EYR", "EPOCH": "2025-12-24T03:40:31.181088", "MEAN_MOTION": 14.26028974, "ECCENTRICITY": 0.00548774, "INCLINATION": 98.7621, "RA_OF_ASC_NODE": 70.308, "ARG_OF_PERICENTER": 190.2359, "MEAN_ANOMALY": 169.7707, "EPHEMERIS_TYPE": 0, "CLASSIFICATION_TYPE": "U", "NORAD_CAT_ID": 45526, "ELEMENT_SET_NO": 999, "REV_AT_EPOCH": 43539, "BSTAR": 0.001800182, "MEAN_MOTION_DOT": 4.324e-05, "MEAN_MOTION_DDOT": 0}, "tle": {"line1": "1 45526U 99025EYR 25358.15313867  .00004324  00000+0  18002-2 0  9999", "line2": "2 45526  98.7621  70.3080 0054877 190.2359 169.7707 14.26028974435399"}}, "geometry": {"type": "Point", "coordinates": [-121.72426782069823, -58.546771855848235]}}, {"type": "Feature", "properties": {"norad_id": 45527, "name": "FENGYUN 1C DEB", "group": "fengyun-1c-debris", "lat": 6.885777259801831, "lon": -111.66030378347318, "alt_km": 772.7064386458833, "timestamp": "2025-12-26T17:24:55.009853+00:00", "meta": {"OBJECT_NAME": "FENGYUN 1C DEB", "OBJECT_ID": "1999-025EYS", "EPOCH": "2025-12-26T03:07:12.044928", "MEAN_MOTION": 14.24597719, "ECCENTRICITY": 0.0055822, "INCLINATION": 98.7379, "RA_OF_ASC_NODE": 66.683, "ARG_OF_PERICENTER": 187.7108, "MEAN_ANOMALY": 172.3219, "EPHEMERIS_TYPE": 0, "CLASSIFICATION_TYPE": "U", "NORAD_CAT_ID": 45527, "ELEMENT_SET_NO": 999, "REV_AT_EPOCH": 39770, "BSTAR": 0.0015544085, "MEAN_MOTION_DOT": 3.626e-05, "MEAN_MOTION_DDOT": 0}, "tle": {"line1": "1 45527U 99025EYS 25360.13000052  .00003626  00000+0  15544-2 0  9992", "line2": "2 45527  98.7379  66.6830 0055822 187.7108 172.3219 14.24597719397701"}}, "geometry": {"type": "Point", "coordinates": [-111.66030378347318, 6.885777259801831]}}]}